ESEO                    
1 43792U 18099AL  26068.65529582  .00002831  00000+0  20935-3 0  9991
2 43792  97.4113 110.2601 0011063 317.6000  42.4371 15.03914518396849
STARLINK-6177           
1 56880U 23083E   26068.05586930  .00002795  00000+0  22187-3 0  9996
2 56880  43.0046  85.3458 0001289 260.5075  99.5622 15.02536257151572
